{
  "type": "FeatureCollection",
  "features": [
    {
      "type": "Feature",
      "properties": {
        "name": "Phoenix Metropolitan Area",
        "description": "Greater Phoenix metro area served by Valley Metro Light Rail (A Line, B Line, and Tempe Streetcar) covering Phoenix, Tempe, Mesa, and Glendale."
      },
      "geometry": {
        "type": "MultiPolygon",
        "coordinates": [
          [
            [
              [-112.32, 33.29],
              [-111.95, 33.29],
              [-111.95, 33.55],
              [-112.32, 33.55],
              [-112.32, 33.29]
            ]
          ],
          [
            [
              [-112.10, 33.36],
              [-111.88, 33.36],
              [-111.88, 33.58],
              [-112.10, 33.58],
              [-112.10, 33.36]
            ]
          ],
          [
            [
              [-112.10, 33.40],
              [-111.72, 33.40],
              [-111.72, 33.70],
              [-112.10, 33.70],
              [-112.10, 33.40]
            ]
          ],
          [
            [
              [-112.27, 33.53],
              [-112.07, 33.53],
              [-112.07, 33.72],
              [-112.27, 33.72],
              [-112.27, 33.53]
            ]
          ]
        ]
      }
    }
  ]
}
